OBJECT_NAME,OBJECT_ID,EPOCH,MEAN_MOTION,ECCENTRICITY,INCLINATION,RA_OF_ASC_NODE,ARG_OF_PERICENTER,MEAN_ANOMALY,EPHEMERIS_TYPE,CLASSIFICATION_TYPE,NORAD_CAT_ID,ELEMENT_SET_NO,REV_AT_EPOCH,BSTAR,MEAN_MOTION_DOT,MEAN_MOTION_DDOT
FLOCK 4BE-27,2024-149AX,2026-07-09T04:02:19.482720,15.34844183,.00033676,97.3820,272.0343,202.7651,157.3444,0,U,60513,999,10551,.21509646E-3,.7187E-4,0
FLOCK 4BE-9,2024-149AY,2026-07-09T00:52:37.051680,15.41465848,.00030915,97.3785,274.5287,188.6470,171.4725,0,U,60514,999,10568,.27016402E-3,.11231E-3,0
FLOCK 4BE-6,2024-149BA,2026-07-08T18:11:39.342336,15.40192015,.00036895,97.3783,273.5644,193.1062,167.0089,0,U,60516,999,10559,.27191308E-3,.10837E-3,0
FLOCK 4BE-14,2024-149BB,2026-07-09T04:13:02.163072,15.41719707,.00046542,97.3690,274.1426,196.4822,163.6274,0,U,60517,999,10571,.33129703E-3,.13917E-3,0
FLOCK 4BE-1,2024-149BC,2026-07-09T00:55:56.414496,15.43357693,.00044346,97.3773,275.3610,196.2754,163.8352,0,U,60518,999,10574,.29886531E-3,.13252E-3,0
FLOCK 4BE-28,2024-149BD,2026-07-08T18:15:44.754624,15.45886309,.0004426,97.3740,275.8716,193.5575,166.5556,0,U,60519,999,10577,.70234842E-3,.3415E-3,0
IPERDRONE.0,2024-149BE,2026-07-08T19:24:40.879872,15.70168447,.00040639,97.3764,284.1409,180.9096,179.2160,0,U,60520,999,10630,.59228535E-3,.71957E-3,0
TRANSPORTER-11 OBJECT BF,2024-149BF,2026-07-08T19:44:38.057280,16.01162793,.0008385,97.3765,287.6622,242.1532,117.8898,0,U,60521,999,10652,.10977188E-2,.594965E-2,.16219772E-3
CONNECTA IOT-2,2024-149BG,2026-07-09T02:37:16.232160,15.24160914,.0005072,97.3833,267.9243,238.4347,121.6395,0,U,60522,999,10523,.12007028E-3,.2851E-4,0
CONNECTA IOT-4,2024-149BJ,2026-07-08T17:51:39.743136,15.42989279,.0005471,97.3790,274.3801,196.4124,163.6947,0,U,60524,999,10565,.34989416E-3,.15345E-3,0
ORESAT0.5,2024-149BK,2026-07-08T17:50:55.788000,15.45926999,.00056279,97.3718,276.0856,185.6029,174.5159,0,U,60525,999,10580,.31850066E-3,.15426E-3,0
DEIMOS,2024-149BL,2026-07-09T01:08:00.343680,15.45031017,.00055172,97.3778,276.5226,190.6494,169.4639,0,U,60526,999,10582,.30182397E-3,.1417E-3,0
CUAVA-2,2024-149BM,2026-07-09T03:54:03.043008,15.36637435,.00063513,97.3721,271.7253,201.0247,159.0738,0,U,60527,999,10554,.27253433E-3,.9676E-4,0
ERNST,2024-149BN,2026-07-08T19:32:49.582464,15.39781528,.00055982,97.3803,273.7041,202.1546,157.9459,0,U,60528,999,10560,.23034662E-3,.9045E-4,0
TORO,2024-149BQ,2026-07-08T18:29:37.663584,14.96508606,.00015285,97.6785,264.0356,93.4893,266.6504,0,U,60530,999,10318,.10884993E-3,.118E-4,0
HYPSO-2,2024-149BR,2026-07-07T16:42:14.807808,14.98904414,.00019125,97.6823,264.6570,108.2868,251.8563,0,U,60531,999,10312,.21835748E-3,.2581E-4,0
LEMU NGE,2024-149BS,2026-07-09T03:19:37.066080,14.95042637,.00006684,97.6829,264.6548,59.4126,300.7160,0,U,60532,999,10323,.12225804E-3,.1282E-4,0
LEMUR-2-STELLA,2024-149BT,2026-07-09T01:15:57.192192,15.12285468,.00010331,97.6729,272.6092,111.4430,248.6911,0,U,60533,999,10380,.46022355E-3,.7901E-4,0
SATELIOT_2,2024-149BU,2026-07-09T03:50:08.341728,14.96444908,.00018438,97.6826,264.7152,83.9683,276.1748,0,U,60534,999,10325,.17641691E-3,.1944E-4,0
NIGHTJAR,2024-149BV,2026-07-09T00:27:42.278976,14.99140894,.00022069,97.6826,266.4191,107.7275,252.4189,0,U,60535,999,14614,.18363905E-3,.2174E-4,0
LEMUR-2-MARHISYAM,2024-149BW,2026-07-09T04:10:02.902080,15.11702055,.0002797,97.6877,273.2018,78.4878,281.6666,0,U,60536,999,10380,.48492062E-3,.8195E-4,0
SATELIOT_4,2024-149BX,2026-07-09T03:59:18.506688,14.96748870,.00015757,97.6736,264.2338,20.4352,339.6932,0,U,60537,999,10326,.14649743E-3,.1618E-4,0
PICO-02A021,2024-149BY,2026-07-08T17:33:38.084256,15.03460922,.00032008,97.6747,268.3815,317.3767,42.7209,0,U,60538,999,10297,.19830685E-3,.264E-4,0
ICEYE-X43,2024-149BZ,2026-07-08T18:43:09.815808,14.99772584,.00069538,97.6814,266.4552,14.9788,345.1640,0,U,60539,999,10335,.14675091E-3,.1755E-4,0
HAWK-10A,2024-149CA,2026-07-08T21:35:41.998560,14.96582101,.00036849,97.6892,265.4382,27.8367,332.3051,0,U,60540,999,10323,.13531937E-3,.1483E-4,0
UMBRA-09,2024-149CB,2026-07-09T05:03:03.129696,15.18723998,.0001785,97.6970,277.8023,214.0416,146.0703,0,U,60541,999,10406,.51690564E-3,.10667E-3,0
QPS-SAR-8 (AMATERU-IV),2024-149CC,2026-07-08T19:30:25.618464,15.04360545,.00044025,97.6667,268.7834,61.5447,298.6222,0,U,60542,999,10352,.22509066E-3,.3079E-4,0
ARCTIC WEATHER SATELLITE,2024-149CD,2026-07-08T18:44:09.245184,14.89821552,.0003307,97.6793,259.6278,64.1630,295.9929,0,U,60543,999,10251,.69970158E-4,.618E-5,0
CAPELLA-15 (ACADIA-5),2024-149CE,2026-07-08T18:40:01.354944,14.92382217,.00033866,97.6776,262.1397,8.7995,351.3283,0,U,60544,999,10307,.20207209E-3,.2013E-4,0
HAWK-10B,2024-149CF,2026-07-09T04:00:36.830016,14.96582889,.00060231,97.6812,265.0338,35.8014,324.3611,0,U,60545,999,10327,.12768597E-3,.1397E-4,0
